CCSDS_OMM_VERS = 2.0
CREATION_DATE  = 
ORIGINATOR     = 

OBJECT_NAME    = CSG-3
OBJECT_ID      = 2026-001A
CENTER_NAME    = EARTH
REF_FRAME      = TEME
TIME_SYSTEM    = UTC
MEAN_ELEMENT_THEORY = SGP/SGP4

EPOCH          = 2026-01-04T18:08:37.543776
MEAN_MOTION    = 14.81518600
ECCENTRICITY   = .0003616
INCLINATION    = 97.8610
RA_OF_ASC_NODE = 190.8353
ARG_OF_PERICENTER = 170.9241
MEAN_ANOMALY   = 189.2038

EPHEMERIS_TYPE = 0
CLASSIFICATION_TYPE = U
NORAD_CAT_ID   = 67304
ELEMENT_SET_NO = 999
REV_AT_EPOCH   = 25
BSTAR          = .13232E-3
MEAN_MOTION_DOT = .986E-5
MEAN_MOTION_DDOT = 0

