CSG-3                   
1 67304U 26001A   26004.75599009  .00000986  00000+0  13232-3 0  9991
2 67304  97.8610 190.8353 0003616 170.9241 189.2038 14.81518600   254
